[{"OBJECT_NAME":"APRIZESAT 1","OBJECT_ID":"2004-025G","EPOCH":"2026-03-09T23:27:31.277376","MEAN_MOTION":14.51715108,"ECCENTRICITY":0.00458388,"INCLINATION":98.6346,"RA_OF_ASC_NODE":76.9867,"ARG_OF_PERICENTER":96.737,"MEAN_ANOMALY":263.9043,"EPHEMERIS_TYPE":0,"CLASSIFICATION_TYPE":"U","NORAD_CAT_ID":28372,"ELEMENT_SET_NO":999,"REV_AT_EPOCH":14751,"BSTAR":0.00011028964,"MEAN_MOTION_DOT":4.0e-6,"MEAN_MOTION_DDOT":0},{"OBJECT_NAME":"FENGYUN 1C DEB","OBJECT_ID":"1999-025ASD","EPOCH":"2026-03-09T04:33:50.443488","MEAN_MOTION":14.62820936,"ECCENTRICITY":0.00102518,"INCLINATION":98.8888,"RA_OF_ASC_NODE":221.2855,"ARG_OF_PERICENTER":270.1098,"MEAN_ANOMALY":89.8927,"EPHEMERIS_TYPE":0,"CLASSIFICATION_TYPE":"U","NORAD_CAT_ID":30719,"ELEMENT_SET_NO":999,"REV_AT_EPOCH":98711,"BSTAR":0.0037659338,"MEAN_MOTION_DOT":0.00019239,"MEAN_MOTION_DDOT":0}]
